QIANFAN-73              
1 63159U 25046A   25299.12983389  .00000031  00000+0  29103-4 0  9993
2 63159  88.9773 324.9548 0013005 259.9294 100.0390 13.50971845 40989
QIANFAN-74              
1 63160U 25046B   25299.11335852  .00000027  00000+0  23360-4 0  9994
2 63160  88.9773 324.8447 0002113  95.7965 264.3427 13.50973715 41048
QIANFAN-75              
1 63161U 25046C   25299.10088236  .00000105  00000+0  14435-3 0  9994
2 63161  88.9775 325.0790 0014104 263.5556  96.3990 13.50982460 40919
QIANFAN-76              
1 63162U 25046D   25299.09690730 -.00000104  00000+0 -18023-3 0  9999
2 63162  88.9774 325.0601 0011712 264.1862  95.7954 13.50972149 40926
QIANFAN-77              
1 63163U 25046E   25299.09438772  .00000143  00000+0  94317-4 0  9998
2 63163  88.9772 323.4587 0013271 222.8903 137.1239 13.96076731 41806
QIANFAN-78              
1 63164U 25046F   25299.13807213  .00000011  00000+0 -98796-6 0  9996
2 63164  88.9774 324.9205 0013033 266.6662  93.2998 13.50974065 41009
QIANFAN-79              
1 63165U 25046G   25299.09269348  .00000034  00000+0  34178-4 0  9999
2 63165  88.9777 325.0309 0012731 264.7965  95.1733 13.50973540 40946
QIANFAN-80              
1 63166U 25046H   25299.10925890  .00000064  00000+0  81413-4 0  9990
2 63166  88.9774 324.7372 0011680 269.8123  90.1690 13.50974688 41104
